{
    "links": {
        "self": "http://www.neowsapp.com/rest/v1/neo/3843356?api_key=iIulBulltgU6a56xZRHN4H3l9WmuAYTsLGpBGhQ2"
    },
    "id": "3843356",
    "neo_reference_id": "3843356",
    "name": "(2019 OB1)",
    "designation": "2019 OB1",
    "nasa_jpl_url": "http://ssd.jpl.nasa.gov/sbdb.cgi?sstr=3843356",
    "absolute_magnitude_h": 28.0,
    "estimated_diameter": {
        "kilometers": {
            "estimated_diameter_min": 0.0066765941,
            "estimated_diameter_max": 0.0149293183
        },
        "meters": {
            "estimated_diameter_min": 6.676594135,
            "estimated_diameter_max": 14.9293183439
        },
        "miles": {
            "estimated_diameter_min": 0.004148642,
            "estimated_diameter_max": 0.0092766455
        },
        "feet": {
            "estimated_diameter_min": 21.9048371017,
            "estimated_diameter_max": 48.9807047955
        }
    },
    "is_potentially_hazardous_asteroid": false,
    "close_approach_data": [
        {
            "close_approach_date": "2019-07-28",
            "close_approach_date_full": "2019-Jul-28 18:41",
            "epoch_date_close_approach": 1564339260000,
            "relative_velocity": {
                "kilometers_per_second": "6.9435790298",
                "kilometers_per_hour": "24996.8845073276",
                "miles_per_hour": "15532.0919317892"
            },
            "miss_distance": {
                "astronomical": "0.0051582875",
                "lunar": "2.0065738375",
                "kilometers": "771668.822847625",
                "miles": "479492.772142225"
            },
            "orbiting_body": "Earth"
        },
        {
            "close_approach_date": "2019-07-29",
            "close_approach_date_full": "2019-Jul-29 04:02",
            "epoch_date_close_approach": 1564372920000,
            "relative_velocity": {
                "kilometers_per_second": "7.1652501849",
                "kilometers_per_hour": "25794.9006658183",
                "miles_per_hour": "16027.9481387136"
            },
            "miss_distance": {
                "astronomical": "0.0065368485",
                "lunar": "2.5428340665",
                "kilometers": "977898.612112695",
                "miles": "607638.021017391"
            },
            "orbiting_body": "Moon"
        }
    ],
    "orbital_data": {
        "orbit_id": "1",
        "orbit_determination_date": "2019-07-27 14:42:03",
        "first_observation_date": "2019-07-26",
        "last_observation_date": "2019-07-26",
        "data_arc_in_days": null,
        "observations_used": 13,
        "orbit_uncertainty": "8",
        "minimum_orbit_intersection": ".00517416",
        "jupiter_tisserand_invariant": "4.604",
        "epoch_osculation": "2458691.5",
        "eccentricity": ".3136955152856723",
        "semi_major_axis": "1.439653557763379",
        "inclination": "7.639493540229275",
        "ascending_node_longitude": "123.7825063248826",
        "orbital_period": "630.9361612578791",
        "perihelion_distance": ".9880406931279442",
        "perihelion_argument": "210.8209810332486",
        "aphelion_distance": "1.891266422398813",
        "perihelion_time": "2458719.413534181922",
        "mean_anomaly": "344.0730759741876",
        "mean_motion": ".5705807054746688",
        "equinox": "J2000",
        "orbit_class": {
            "orbit_class_type": "APO",
            "orbit_class_description": "Near-Earth asteroid orbits which cross the Earth’s orbit similar to that of 1862 Apollo",
            "orbit_class_range": "a (semi-major axis) > 1.0 AU; q (perihelion) < 1.017 AU"
        }
    },
    "is_sentry_object": false
}